{
  "idField": "Blah",
  "items": [
    {
      "Name": "ESRI-Boston",
      "Street": "n/a",
      "City": "Danvers",
      "State": "MA",
      "Zip": "",
      "Blah": 2,
      "POINT_X": -70.967736111,
      "POINT_Y": 42.595220556,
      "xWM": -7900092.24663,
      "yWM": 5250561.84044
    },
    {
      "Name": "ESRI-California",
      "Street": "",
      "City": "",
      "State": "",
      "Zip": "",
      "Blah": 4,
      "POINT_X": -117.195731667,
      "POINT_Y": 34.056687222,
      "xWM": -13046169.1723,
      "yWM": 4036416.27725
    },
    {
      "Name": "ESRI-Denver",
      "Street": "One International Court",
      "City": "Broomfield",
      "State": "CO",
      "Zip": "80021-3200",
      "Blah": 8,
      "POINT_X": -105.117066111,
      "POINT_Y": 39.918428889,
      "xWM": -11701578.2732,
      "yWM": 4854095.65861
    },
    {
      "Name": "ESRI-Olympia",
      "Street": "606 Columbia Street NW",
      "City": "Olympia",
      "State": "WA",
      "Zip": "98501-1099",
      "Blah": 16,
      "POINT_X": -122.903323333,
      "POINT_Y": 47.049011667,
      "xWM": -13681535.3702,
      "yWM": 5950077.69643
    },
    {
      "Name": "ESRI-Washington, DC",
      "Street": "8615 Westwood Center Dr.",
      "City": "Vienna",
      "State": "VA",
      "Zip": "22182-2218",
      "Blah": 32,
      "POINT_X": -77.244887778,
      "POINT_Y": 38.928942778,
      "xWM": -8598861.57383,
      "yWM": 4711498.34015
    },
    {
      "Name": "ESRI-Charlotte",
      "Street": "3325 Springbank Lane",
      "City": "Charlotte",
      "State": "NC",
      "Zip": "28226-3343",
      "Blah": 64,
      "POINT_X": -80.783008512,
      "POINT_Y": 35.100184504,
      "xWM": -8992723.3723,
      "yWM": 4177504.16628
    },
    {
      "Name": "ESRI-Minneapolis",
      "Street": "880 Blue Gentian Road",
      "City": "St. Paul",
      "State": "MN",
      "Zip": "55121-1596",
      "Blah": 128,
      "POINT_X": -93.131051701,
      "POINT_Y": 44.858781462,
      "xWM": -10367301.2524,
      "yWM": 5599316.84812
    },
    {
      "Name": "ESRI-Philadelphia",
      "Street": "1400 Morris Drive",
      "City": "Chesterbrook",
      "State": "PA",
      "Zip": "19087-5512",
      "Blah": 256,
      "POINT_X": -75.467028877,
      "POINT_Y": 40.068923187,
      "xWM": -8400951.22627,
      "yWM": 4875963.06988
    },
    {
      "Name": "ESRI-San Antonio",
      "Street": "227 North Loop 1604 East",
      "City": "San Antonio",
      "State": "TX",
      "Zip": "78232-1260",
      "Blah": 512,
      "POINT_X": -98.492915455,
      "POINT_Y": 29.555139521,
      "xWM": -10964181.1952,
      "yWM": 3446494.39038
    },
    {
      "Name": "ESRI-St. Louis",
      "Street": "820 S Main Street",
      "City": "St. Charles",
      "State": "MO",
      "Zip": "63301-3306",
      "Blah": 1024,
      "POINT_X": -90.491334858,
      "POINT_Y": 38.777677095,
      "xWM": -10073449.3176,
      "yWM": 4689875.57255
    },
    {
      "Name": "Atlanta Satellite Office",
      "Street": "11465 Johns Creek Pkwy",
      "City": "Duluth",
      "State": "GA",
      "Zip": "30097",
      "Blah": 2048,
      "POINT_X": -84.168368333,
      "POINT_Y": 34.057201111,
      "xWM": -9369579.90373,
      "yWM": 4036485.3263
    },
    {
      "Name": "Chicago Satellite Office",
      "Street": "221 N. LaSalle Street",
      "City": "Chicago",
      "State": "IL",
      "Zip": "60601",
      "Blah": 4096,
      "POINT_X": -87.632450556,
      "POINT_Y": 41.886393889,
      "xWM": -9755199.77286,
      "yWM": 5143976.96139
    },
    {
      "Name": "Dallas (Business Map)",
      "Street": "1202 Richardson",
      "City": "Richardson",
      "State": "TX",
      "Zip": "75080",
      "Blah": 8192,
      "POINT_X": -96.727687222,
      "POINT_Y": 32.965670556,
      "xWM": -10767676.8872,
      "yWM": 3890748.18987
    },
    {
      "Name": "Honolulu Satellite Office",
      "Street": "1357 Kapiolani Blvd.",
      "City": "Honolulu",
      "State": "HI",
      "Zip": "96814",
      "Blah": 16384,
      "POINT_X": -157.844822778,
      "POINT_Y": 21.293962778,
      "xWM": -17571205.296,
      "yWM": 2426965.22453
    },
    {
      "Name": "Houston Satellite Office",
      "Street": "1 Fluor Daniel Drive",
      "City": "Sugarland",
      "State": "TX",
      "Zip": "77478-3838",
      "Blah": 32768,
      "POINT_X": -95.627047778,
      "POINT_Y": 29.60546,
      "xWM": -10645154.2647,
      "yWM": 3452935.55135
    },
    {
      "Name": "Johnstown Satellite Office",
      "Street": "1001 Broad Street",
      "City": "Johnstown",
      "State": "PA",
      "Zip": "15906",
      "Blah": 65536,
      "POINT_X": -78.93423,
      "POINT_Y": 40.342613333,
      "xWM": -8786918.28976,
      "yWM": 4915855.54029
    },
    {
      "Name": "Kansas City Satellite Office",
      "Street": "8700 State Line Rd.",
      "City": "Leawood",
      "State": "KS",
      "Zip": "66206-1569",
      "Blah": 131072,
      "POINT_X": -94.608262778,
      "POINT_Y": 38.971187778,
      "xWM": -10531743.6373,
      "yWM": 4717545.3089
    },
    {
      "Name": "La Jolla Satellite Office",
      "Street": "3252 Holiday Court",
      "City": "La Jolla",
      "State": "CA",
      "Zip": "92037",
      "Blah": 262144,
      "POINT_X": -117.233209444,
      "POINT_Y": 32.869903333,
      "xWM": -13050341.1794,
      "yWM": 3878048.51088
    },
    {
      "Name": "Lodi Sattellite Office",
      "Street": "113 South Main Street",
      "City": "Lodi",
      "State": "WI",
      "Zip": "53555",
      "Blah": 524288,
      "POINT_X": -89.526696111,
      "POINT_Y": 43.314059444,
      "xWM": -9966066.22348,
      "yWM": 5359897.72726
    },
    {
      "Name": "New York City Office",
      "Street": "75 Broad Street",
      "City": "New York",
      "State": "NY",
      "Zip": "10004-2475",
      "Blah": 1048576,
      "POINT_X": -74.011321667,
      "POINT_Y": 40.704913889,
      "xWM": -8238902.64091,
      "yWM": 4968913.48015
    },
    {
      "Name": "Phoenix Development Office",
      "Street": "One East Camelback Rd.",
      "City": "Phoenix",
      "State": "AZ",
      "Zip": "85012",
      "Blah": 2097152,
      "POINT_X": -112.073665,
      "POINT_Y": 33.509042222,
      "xWM": -12475983.3191,
      "yWM": 3963067.37087
    },
    {
      "Name": "Portland Satellite Office",
      "Street": "280 Fore Street",
      "City": "Portland",
      "State": "ME",
      "Zip": "04101",
      "Blah": 4194304,
      "POINT_X": -70.251035556,
      "POINT_Y": 43.658080556,
      "xWM": -7820309.50579,
      "yWM": 5412680.93154
    },
    {
      "Name": "Sacramento Satellite Office",
      "Street": "1600 K. Street",
      "City": "Sacramento",
      "State": "CA",
      "Zip": "95814",
      "Blah": 8388608,
      "POINT_X": -121.485721111,
      "POINT_Y": 38.576777222,
      "xWM": -13523728.6127,
      "yWM": 4661228.58467
    },
    {
      "Name": "Seattle Satellite Office",
      "Street": "100 S. King Street",
      "City": "Seattle",
      "State": "WA",
      "Zip": "98104",
      "Blah": 16777216,
      "POINT_X": -122.334093889,
      "POINT_Y": 47.59852,
      "xWM": -13618169.0384,
      "yWM": 6040320.88143
    },
    {
      "Name": "West Palm Beach Satellite",
      "Street": "303 Evernia Street",
      "City": "W Palm Beach",
      "State": "FL",
      "Zip": "33401",
      "Blah": 33554432,
      "POINT_X": -80.052075556,
      "POINT_Y": 26.711582778,
      "xWM": -8911356.28784,
      "yWM": 3087483.80907
    },
    {
      "Name": "Columbus Satellite Office",
      "Street": "1085 Beecher Crossing North",
      "City": "Gahanna",
      "State": "OH",
      "Zip": "43230-4563",
      "Blah": 67108864,
      "POINT_X": -82.868730052,
      "POINT_Y": 40.048467164,
      "xWM": -9224904.83207,
      "yWM": 4872987.89733
    },
    {
      "Name": "Nashville Satellite Office",
      "Street": "321 Billingsly Court",
      "City": "Franklin",
      "State": "TN",
      "Zip": "37067-6445",
      "Blah": 134217728,
      "POINT_X": -86.804161008,
      "POINT_Y": 35.950842557,
      "xWM": -9662995.00215,
      "yWM": 4293859.49014
    }
  ]
}